IRIDIUM 921             
1 24873U 97034E   24361.04672160  .00186142  00000+0  13150-2 0  9992
2 24873  86.3681 191.2340 0001409  52.4328 307.7071 15.73490448505219
IRIDIUM 26              
1 24903U 97043A   24360.59337115  .00001108  00000+0  36856-3 0  9990
2 24903  86.3978 183.4691 0001847  84.8026 275.3382 14.36867232431810
IRIDIUM 22              
1 24907U 97043E   24360.59048909  .00000958  00000+0  32503-3 0  9991
2 24907  86.3981 186.8563 0001984  90.2164 269.9259 14.35710785431854
DUMMY MASS 1            
1 24925U 97048A   24360.64790725  .00000958  00000+0  10466-3 0  9996
2 24925  86.3353 215.4917 0008509  53.6265 306.5744 14.86694214479587
DUMMY MASS 2            
1 24926U 97048B   24360.64856835  .00000956  00000+0  10498-3 0  9995
2 24926  86.3352 217.0667 0009553  61.6165 298.6022 14.86448777479362
IRIDIUM 29              
1 24944U 97051A   24360.67241314  .00000929  00000+0  31204-3 0  9990
2 24944  86.3966 216.6002 0002184  88.8745 271.2702 14.36177687428583
IRIDIUM 33              
1 24946U 97051C   24360.67777035  .00000578  00000+0  19756-3 0  9994
2 24946  86.3882 215.8464 0005993 290.3369  69.7182 14.34696204427870
IRIDIUM 28              
1 24948U 97051E   24360.61922637  .00000851  00000+0  27998-3 0  9991
2 24948  86.3971 214.2378 0001615  79.6231 280.5148 14.37122625428916
